[{"OBJECT_NAME":"JY1SAT (JO-97)","OBJECT_ID":"2018-099AX","EPOCH":"2026-03-09T16:28:19.890048","MEAN_MOTION":15.30302629,"ECCENTRICITY":0.00047232,"INCLINATION":97.4249,"RA_OF_ASC_NODE":131.3625,"ARG_OF_PERICENTER":256.6795,"MEAN_ANOMALY":103.3919,"EPHEMERIS_TYPE":0,"CLASSIFICATION_TYPE":"U","NORAD_CAT_ID":43803,"ELEMENT_SET_NO":999,"REV_AT_EPOCH":39839,"BSTAR":0.00060804308,"MEAN_MOTION_DOT":0.00017774,"MEAN_MOTION_DDOT":0},{"OBJECT_NAME":"STARLINK-35680","OBJECT_ID":"2025-270Y","EPOCH":"2026-03-09T22:29:35.759616","MEAN_MOTION":15.27608853,"ECCENTRICITY":0.00035908,"INCLINATION":43.0043,"RA_OF_ASC_NODE":54.7886,"ARG_OF_PERICENTER":302.0404,"MEAN_ANOMALY":58.0099,"EPHEMERIS_TYPE":0,"CLASSIFICATION_TYPE":"U","NORAD_CAT_ID":66610,"ELEMENT_SET_NO":999,"REV_AT_EPOCH":1785,"BSTAR":0.0011909637,"MEAN_MOTION_DOT":0.00032689,"MEAN_MOTION_DDOT":0}]
